{
    "links": {
        "self": "http://www.neowsapp.com/rest/v1/neo/54053948?api_key=iIulBulltgU6a56xZRHN4H3l9WmuAYTsLGpBGhQ2"
    },
    "id": "54053948",
    "neo_reference_id": "54053948",
    "name": "(2020 RT4)",
    "designation": "2020 RT4",
    "nasa_jpl_url": "http://ssd.jpl.nasa.gov/sbdb.cgi?sstr=54053948",
    "absolute_magnitude_h": 25.399,
    "estimated_diameter": {
        "kilometers": {
            "estimated_diameter_min": 0.0221184646,
            "estimated_diameter_max": 0.0494583904
        },
        "meters": {
            "estimated_diameter_min": 22.1184646203,
            "estimated_diameter_max": 49.4583904488
        },
        "miles": {
            "estimated_diameter_min": 0.0137437725,
            "estimated_diameter_max": 0.0307320095
        },
        "feet": {
            "estimated_diameter_min": 72.5671434647,
            "estimated_diameter_max": 162.2650657201
        }
    },
    "is_potentially_hazardous_asteroid": false,
    "close_approach_data": [
        {
            "close_approach_date": "1929-10-07",
            "close_approach_date_full": "1929-Oct-07 06:21",
            "epoch_date_close_approach": -1269711540000,
            "relative_velocity": {
                "kilometers_per_second": "16.0471551939",
                "kilometers_per_hour": "57769.7586980094",
                "miles_per_hour": "35895.8814532159"
            },
            "miss_distance": {
                "astronomical": "0.2853856185",
                "lunar": "111.0150055965",
                "kilometers": "42693080.656232595",
                "miles": "26528250.188476011"
            },
            "orbiting_body": "Earth"
        },
        {
            "close_approach_date": "2020-09-09",
            "close_approach_date_full": "2020-Sep-09 17:41",
            "epoch_date_close_approach": 1599673260000,
            "relative_velocity": {
                "kilometers_per_second": "8.7055892415",
                "kilometers_per_hour": "31340.1212693422",
                "miles_per_hour": "19473.5325742754"
            },
            "miss_distance": {
                "astronomical": "0.0259294254",
                "lunar": "10.0865464806",
                "kilometers": "3878986.810163898",
                "miles": "2410290.6371738724"
            },
            "orbiting_body": "Earth"
        },
        {
            "close_approach_date": "2149-09-26",
            "close_approach_date_full": "2149-Sep-26 00:45",
            "epoch_date_close_approach": 5671903500000,
            "relative_velocity": {
                "kilometers_per_second": "10.9498287248",
                "kilometers_per_hour": "39419.3834094182",
                "miles_per_hour": "24493.671874591"
            },
            "miss_distance": {
                "astronomical": "0.0981815062",
                "lunar": "38.1926059118",
                "kilometers": "14687744.200911794",
                "miles": "9126541.0431149972"
            },
            "orbiting_body": "Earth"
        }
    ],
    "orbital_data": {
        "orbit_id": "7",
        "orbit_determination_date": "2020-10-11 07:09:46",
        "first_observation_date": "2020-09-12",
        "last_observation_date": "2020-09-25",
        "data_arc_in_days": 13,
        "observations_used": 50,
        "orbit_uncertainty": "7",
        "minimum_orbit_intersection": ".0238777",
        "jupiter_tisserand_invariant": "3.946",
        "epoch_osculation": "2459000.5",
        "eccentricity": ".4380255189396098",
        "semi_major_axis": "1.789487551662597",
        "inclination": "10.16590554448889",
        "ascending_node_longitude": "353.4197603018845",
        "orbital_period": "874.3623513286909",
        "perihelion_distance": "1.005646338209616",
        "perihelion_argument": "335.1051845886632",
        "aphelion_distance": "2.573328765115578",
        "perihelion_time": "2459085.695708359934",
        "mean_anomaly": "324.9224889852942",
        "mean_motion": ".4117286150906885",
        "equinox": "J2000",
        "orbit_class": {
            "orbit_class_type": "APO",
            "orbit_class_description": "Near-Earth asteroid orbits which cross the Earth’s orbit similar to that of 1862 Apollo",
            "orbit_class_range": "a (semi-major axis) > 1.0 AU; q (perihelion) < 1.017 AU"
        }
    },
    "is_sentry_object": false
}